{
  "norad_id": 63906,
  "name": "STARLINK-33770",
  "history": [
    {
      "epoch": "2026-03-28T16:05:03.034464Z",
      "apogee_km": 484.2315346221485,
      "perigee_km": 481.7432792447298,
      "latitude_deg": 4.657581532968376e-05,
      "longitude_deg": 1.4141165760851209,
      "height_km": 482.53951334660144,
      "semi_major_axis_km": 6861.124406933439,
      "eccentricity": 0.00018133,
      "inclination_deg": 43.0065,
      "raan_deg": 68.764,
      "arg_perigee_deg": 280.4498,
      "mean_anomaly_deg": 79.615,
      "mean_motion_rev_day": 15.27600602
    }
  ]
}